HAWK-2A                 
1 47505U 21006CW  26068.67946547  .00008113  00000+0  25431-3 0  9990
2 47505  97.2459 115.6184 0006450 187.1463 172.9689 15.33304498284242
STARLINK-31488          
1 59009U 24036M   26068.34469128 -.00005283  00000+0 -16641-3 0  9997
2 59009  53.1598  79.5005 0000673  99.9246 260.1831 15.30195249115273
